OBJECT_NAME,OBJECT_ID,EPOCH,MEAN_MOTION,ECCENTRICITY,INCLINATION,RA_OF_ASC_NODE,ARG_OF_PERICENTER,MEAN_ANOMALY,EPHEMERIS_TYPE,CLASSIFICATION_TYPE,NORAD_CAT_ID,ELEMENT_SET_NO,REV_AT_EPOCH,BSTAR,MEAN_MOTION_DOT,MEAN_MOTION_DDOT
ONEWEB-0534,2023-029B,2026-06-04T17:30:53.503488,13.20770716,.00018568,87.9182,276.9532,101.2375,258.8967,0,U,55797,999,15950,-.43020832E-4,-.5E-7,0
ONEWEB-0556,2023-029C,2026-06-03T07:07:54.505632,13.20773089,.00021319,87.9178,277.2388,75.3793,284.7576,0,U,55798,999,15931,.25758499E-3,.118E-5,0
ONEWEB-0562,2023-029D,2026-06-04T17:21:11.031840,13.20771725,.00024596,87.9186,276.9329,86.1263,274.0151,0,U,55799,999,15950,-.30680209E-3,-.112E-5,0
ONEWEB-0563,2023-029E,2026-06-04T17:13:56.133120,13.20772127,.00016066,87.9193,276.9650,104.2496,255.8816,0,U,55800,999,15949,-.97488889E-4,-.27E-6,0
ONEWEB-0564,2023-029F,2026-06-04T17:04:13.747008,13.20772910,.00022966,87.9192,276.9400,105.1799,254.9589,0,U,55801,999,15950,-.27871351E-3,-.1E-5,0
ONEWEB-0638,2023-029G,2026-06-03T11:07:27.797952,13.14502063,.00021073,87.8945,292.4893,82.9123,277.2246,0,U,55802,999,15759,.3208963E-3,.132E-5,0
ONEWEB-0639,2023-029H,2026-06-03T23:47:39.472512,13.19726130,.00008416,87.9159,307.6057,97.0601,263.0627,0,U,55803,999,15716,-.30316804E-4,.1E-7,0
ONEWEB-0640,2023-029J,2026-06-03T07:41:56.395968,13.14501972,.00017301,87.8944,292.5080,76.5250,283.6073,0,U,55804,999,15759,-.10504771E-3,-.26E-6,0
ONEWEB-0641,2023-029K,2026-06-03T23:40:48.946368,13.19727257,.00016622,87.9164,307.5948,97.1277,263.0044,0,U,55805,999,15717,.16518613E-3,.79E-6,0
ONEWEB-0642,2023-029L,2026-06-03T10:49:46.071552,13.19726290,.00010568,87.9159,307.7147,108.7042,251.4206,0,U,55806,999,15709,.89005165E-4,.49E-6,0
ONEWEB-0643,2023-029M,2026-06-04T17:41:09.043872,13.14502442,.00014632,87.8945,292.2132,117.3126,242.8153,0,U,55807,999,15775,.18302153E-3,.81E-6,0
ONEWEB-0644,2023-029N,2026-06-03T23:27:09.577152,13.19724755,.00014712,87.9156,307.6115,101.5694,258.5604,0,U,55808,999,15716,-.32737981E-3,-.118E-5,0
ONEWEB-0645,2023-029P,2026-06-02T18:52:11.322624,13.19726988,.00014387,87.9156,307.8460,83.9278,276.2019,0,U,55809,999,15700,-.16740768E-4,.6E-7,0
ONEWEB-0646,2023-029Q,2026-06-02T19:17:14.038944,13.19725132,.00016884,87.9154,307.8422,106.1464,253.9854,0,U,55810,999,15699,-.17582837E-3,-.57E-6,0
ONEWEB-0648,2023-029R,2026-06-03T08:02:28.834080,13.14505059,.00009659,87.8954,292.4645,86.1560,273.9680,0,U,55811,999,15757,-.3608201E-3,-.121E-5,0
ONEWEB-0649,2023-029S,2026-06-03T23:11:14.982432,13.19726992,.00015535,87.9158,307.6084,91.8872,268.2438,0,U,55812,999,15718,-.37830701E-4,-.2E-7,0
ONEWEB-0650,2023-029T,2026-06-03T23:04:25.935456,13.19726946,.0001382,87.9158,307.6119,100.5233,259.6056,0,U,55813,999,15715,.14419762E-4,.19E-6,0
ONEWEB-0652,2023-029U,2026-06-03T07:35:05.321184,13.14503783,.00019615,87.8958,292.4759,102.6238,257.5111,0,U,55814,999,15754,.19490384E-3,.85E-6,0
ONEWEB-0653,2023-029V,2026-06-03T10:51:28.389888,13.14502554,.00019136,87.8954,292.4468,95.2522,264.8826,0,U,55815,999,15759,.62992251E-3,.246E-5,0
ONEWEB-0654,2023-029W,2026-06-04T17:47:59.563968,13.14503647,.00022107,87.8953,292.1861,93.9402,266.1980,0,U,55816,999,15778,.53963682E-3,.213E-5,0
ONEWEB-0656,2023-029X,2026-06-04T16:54:32.996448,13.20771463,.00022314,87.9192,276.9166,92.6145,267.5244,0,U,55817,999,15950,-.33763929E-3,-.124E-5,0
ONEWEB-0657,2023-029Y,2026-06-02T19:39:58.327776,13.19726362,.00023329,87.9159,307.8384,110.6459,249.4924,0,U,55818,999,15701,-.969077E-4,-.26E-6,0
ONEWEB-0658,2023-029Z,2026-06-03T11:55:43.699584,13.19726967,.0001418,87.9168,307.6776,100.8472,259.2820,0,U,55819,999,15711,-.35805E-4,-.1E-7,0
ONEWEB-0660,2023-029AA,2026-06-02T19:35:46.706784,13.14502633,.00016571,87.8961,292.5615,89.4634,270.6686,0,U,55820,999,15751,.46243125E-4,.3E-6,0
ONEWEB-0661,2023-029AB,2026-06-03T11:02:53.902176,13.14501994,.00015404,87.8943,292.4801,87.3980,272.7326,0,U,55821,999,15758,.55432756E-3,.218E-5,0
ONEWEB-0662,2023-029AC,2026-06-04T20:46:05.966976,13.14501950,.00016578,87.8944,292.2066,89.9026,270.2294,0,U,55822,999,15781,-.46143887E-3,-.158E-5,0
ONEWEB-0663,2023-029AD,2026-06-04T17:44:22.922880,13.20867915,.00015357,87.9193,276.9824,95.7833,264.3475,0,U,55823,999,15950,.9534934E-4,.52E-6,0
ONEWEB-0664,2023-029AE,2026-06-03T07:51:30.460032,13.20771371,.00020512,87.9177,277.2455,89.2634,270.8734,0,U,55824,999,15931,.20141902E-3,.95E-6,0
ONEWEB-0665,2023-029AF,2026-06-03T10:58:20.179200,13.14502093,.00016018,87.8945,292.4623,91.6396,268.4917,0,U,55825,999,15760,.46255056E-3,.184E-5,0
ONEWEB-0666,2023-029AG,2026-06-03T07:41:48.987168,13.20769624,.00024584,87.9183,277.2362,117.9769,242.1614,0,U,55826,999,15932,.24622476E-4,.23E-6,0
